{
  "norad_id": 48408,
  "name": "STARLINK-2592",
  "history": [
    {
      "epoch": "2026-03-28T20:25:15.015936",
      "apogee_km": 475.8345173204116,
      "perigee_km": 474.4504289980114,
      "latitude_deg": -52.54111365551379,
      "longitude_deg": -177.51664896006696,
      "semi_major_axis_km": 6853.279473159211,
      "eccentricity": 0.00010098,
      "inclination_deg": 53.1569,
      "raan_deg": 244.0788,
      "arg_perigee_deg": 91.9965,
      "mean_anomaly_deg": 268.1151,
      "mean_motion_rev_day": 15.30224314
    }
  ]
}